[{"OBJECT_NAME":"ONEWEB-0164","OBJECT_ID":"2021-025X","EPOCH":"2025-12-14T06:56:35.028384","MEAN_MOTION":13.13471725,"ECCENTRICITY":0.00018528,"INCLINATION":87.8987,"RA_OF_ASC_NODE":356.9591,"ARG_OF_PERICENTER":90.2355,"MEAN_ANOMALY":269.8986,"EPHEMERIS_TYPE":0,"CLASSIFICATION_TYPE":"U","NORAD_CAT_ID":48063,"ELEMENT_SET_NO":999,"REV_AT_EPOCH":22931,"BSTAR":-0.00063366066,"MEAN_MOTION_DOT":-2.19e-6,"MEAN_MOTION_DDOT":0},{"OBJECT_NAME":"ONEWEB-0167","OBJECT_ID":"2021-025Y","EPOCH":"2025-12-14T07:36:50.510592","MEAN_MOTION":13.13469196,"ECCENTRICITY":0.00016557,"INCLINATION":87.8977,"RA_OF_ASC_NODE":356.981,"ARG_OF_PERICENTER":66.5929,"MEAN_ANOMALY":293.5374,"EPHEMERIS_TYPE":0,"CLASSIFICATION_TYPE":"U","NORAD_CAT_ID":48064,"ELEMENT_SET_NO":999,"REV_AT_EPOCH":22930,"BSTAR":0.00068298719,"MEAN_MOTION_DOT":2.62e-6,"MEAN_MOTION_DDOT":0},{"OBJECT_NAME":"ONEWEB-0166","OBJECT_ID":"2021-025Z","EPOCH":"2025-12-14T06:20:01.765248","MEAN_MOTION":13.13471293,"ECCENTRICITY":0.00016054,"INCLINATION":87.8985,"RA_OF_ASC_NODE":356.948,"ARG_OF_PERICENTER":95.7627,"MEAN_ANOMALY":264.3686,"EPHEMERIS_TYPE":0,"CLASSIFICATION_TYPE":"U","NORAD_CAT_ID":48065,"ELEMENT_SET_NO":999,"REV_AT_EPOCH":22937,"BSTAR":0.0005005065,"MEAN_MOTION_DOT":1.96e-6,"MEAN_MOTION_DDOT":0},{"OBJECT_NAME":"ONEWEB-0151","OBJECT_ID":"2021-025AA","EPOCH":"2025-12-14T06:22:28.196832","MEAN_MOTION":13.13470897,"ECCENTRICITY":0.00017492,"INCLINATION":87.8987,"RA_OF_ASC_NODE":356.974,"ARG_OF_PERICENTER":85.8591,"MEAN_ANOMALY":274.2738,"EPHEMERIS_TYPE":0,"CLASSIFICATION_TYPE":"U","NORAD_CAT_ID":48066,"ELEMENT_SET_NO":999,"REV_AT_EPOCH":22931,"BSTAR":0.0004422544,"MEAN_MOTION_DOT":1.74e-6,"MEAN_MOTION_DDOT":0},{"OBJECT_NAME":"ONEWEB-0170","OBJECT_ID":"2021-025AB","EPOCH":"2025-12-14T06:34:38.862624","MEAN_MOTION":13.1347174,"ECCENTRICITY":0.00021575,"INCLINATION":87.898,"RA_OF_ASC_NODE":356.9772,"ARG_OF_PERICENTER":83.2447,"MEAN_ANOMALY":276.8928,"EPHEMERIS_TYPE":0,"CLASSIFICATION_TYPE":"U","NORAD_CAT_ID":48067,"ELEMENT_SET_NO":999,"REV_AT_EPOCH":22927,"BSTAR":-1.8043939e-5,"MEAN_MOTION_DOT":6.0e-8,"MEAN_MOTION_DDOT":0},{"OBJECT_NAME":"ONEWEB-0168","OBJECT_ID":"2021-025AC","EPOCH":"2025-12-14T06:12:43.185888","MEAN_MOTION":13.13470626,"ECCENTRICITY":0.00015662,"INCLINATION":87.8988,"RA_OF_ASC_NODE":356.9654,"ARG_OF_PERICENTER":90.0937,"MEAN_ANOMALY":270.0372,"EPHEMERIS_TYPE":0,"CLASSIFICATION_TYPE":"U","NORAD_CAT_ID":48068,"ELEMENT_SET_NO":999,"REV_AT_EPOCH":22928,"BSTAR":0.00069355198,"MEAN_MOTION_DOT":2.66e-6,"MEAN_MOTION_DDOT":0},{"OBJECT_NAME":"ONEWEB-0173","OBJECT_ID":"2021-025AD","EPOCH":"2025-12-14T00:31:26.572512","MEAN_MOTION":13.13471778,"ECCENTRICITY":0.00014348,"INCLINATION":87.8988,"RA_OF_ASC_NODE":357.0202,"ARG_OF_PERICENTER":79.4817,"MEAN_ANOMALY":280.6473,"EPHEMERIS_TYPE":0,"CLASSIFICATION_TYPE":"U","NORAD_CAT_ID":48069,"ELEMENT_SET_NO":999,"REV_AT_EPOCH":22949,"BSTAR":0.00089066981,"MEAN_MOTION_DOT":3.38e-6,"MEAN_MOTION_DDOT":0},{"OBJECT_NAME":"ONEWEB-0171","OBJECT_ID":"2021-025AE","EPOCH":"2025-12-14T06:54:09.770976","MEAN_MOTION":13.13470804,"ECCENTRICITY":0.00017665,"INCLINATION":87.8973,"RA_OF_ASC_NODE":356.9895,"ARG_OF_PERICENTER":86.9132,"MEAN_ANOMALY":273.2199,"EPHEMERIS_TYPE":0,"CLASSIFICATION_TYPE":"U","NORAD_CAT_ID":48070,"ELEMENT_SET_NO":999,"REV_AT_EPOCH":22934,"BSTAR":-0.00081324013,"MEAN_MOTION_DOT":-2.84e-6,"MEAN_MOTION_DDOT":0},{"OBJECT_NAME":"ONEWEB-0172","OBJECT_ID":"2021-025AF","EPOCH":"2025-12-14T06:24:54.263808","MEAN_MOTION":13.13470867,"ECCENTRICITY":0.000169,"INCLINATION":87.8989,"RA_OF_ASC_NODE":356.976,"ARG_OF_PERICENTER":85.5959,"MEAN_ANOMALY":274.5363,"EPHEMERIS_TYPE":0,"CLASSIFICATION_TYPE":"U","NORAD_CAT_ID":48071,"ELEMENT_SET_NO":999,"REV_AT_EPOCH":23023,"BSTAR":0.00024726437,"MEAN_MOTION_DOT":1.03e-6,"MEAN_MOTION_DDOT":0},{"OBJECT_NAME":"ONEWEB-0174","OBJECT_ID":"2021-025AG","EPOCH":"2025-12-14T07:47:47.162688","MEAN_MOTION":13.13472042,"ECCENTRICITY":0.00015982,"INCLINATION":87.8977,"RA_OF_ASC_NODE":356.9686,"ARG_OF_PERICENTER":94.4538,"MEAN_ANOMALY":265.6774,"EPHEMERIS_TYPE":0,"CLASSIFICATION_TYPE":"U","NORAD_CAT_ID":48072,"ELEMENT_SET_NO":999,"REV_AT_EPOCH":22956,"BSTAR":0.00098409106,"MEAN_MOTION_DOT":3.72e-6,"MEAN_MOTION_DDOT":0},{"OBJECT_NAME":"ONEWEB-0175","OBJECT_ID":"2021-025AH","EPOCH":"2025-12-14T01:12:52.700544","MEAN_MOTION":13.13471153,"ECCENTRICITY":0.00019116,"INCLINATION":87.8984,"RA_OF_ASC_NODE":356.9925,"ARG_OF_PERICENTER":81.3322,"MEAN_ANOMALY":278.8024,"EPHEMERIS_TYPE":0,"CLASSIFICATION_TYPE":"U","NORAD_CAT_ID":48073,"ELEMENT_SET_NO":999,"REV_AT_EPOCH":22918,"BSTAR":-0.00052430218,"MEAN_MOTION_DOT":-1.79e-6,"MEAN_MOTION_DDOT":0},{"OBJECT_NAME":"ONEWEB-0177","OBJECT_ID":"2021-025AJ","EPOCH":"2025-12-14T01:29:57.071904","MEAN_MOTION":13.13470963,"ECCENTRICITY":0.00015303,"INCLINATION":87.8987,"RA_OF_ASC_NODE":357.0099,"ARG_OF_PERICENTER":92.3321,"MEAN_ANOMALY":267.7984,"EPHEMERIS_TYPE":0,"CLASSIFICATION_TYPE":"U","NORAD_CAT_ID":48074,"ELEMENT_SET_NO":999,"REV_AT_EPOCH":22937,"BSTAR":-0.00085172961,"MEAN_MOTION_DOT":-2.98e-6,"MEAN_MOTION_DDOT":0},{"OBJECT_NAME":"ONEWEB-0178","OBJECT_ID":"2021-025AK","EPOCH":"2025-12-14T07:26:03.012576","MEAN_MOTION":13.13471774,"ECCENTRICITY":0.00016628,"INCLINATION":87.8976,"RA_OF_ASC_NODE":357.0014,"ARG_OF_PERICENTER":81.1618,"MEAN_ANOMALY":278.9699,"EPHEMERIS_TYPE":0,"CLASSIFICATION_TYPE":"U","NORAD_CAT_ID":48075,"ELEMENT_SET_NO":999,"REV_AT_EPOCH":22945,"BSTAR":0.00024978017,"MEAN_MOTION_DOT":1.04e-6,"MEAN_MOTION_DDOT":0},{"OBJECT_NAME":"ONEWEB-0108","OBJECT_ID":"2021-025AL","EPOCH":"2025-12-14T06:27:21.929184","MEAN_MOTION":13.13470356,"ECCENTRICITY":0.00018473,"INCLINATION":87.8984,"RA_OF_ASC_NODE":356.9583,"ARG_OF_PERICENTER":97.2564,"MEAN_ANOMALY":262.8775,"EPHEMERIS_TYPE":0,"CLASSIFICATION_TYPE":"U","NORAD_CAT_ID":48076,"ELEMENT_SET_NO":999,"REV_AT_EPOCH":22937,"BSTAR":-1.4609728e-5,"MEAN_MOTION_DOT":7.0e-8,"MEAN_MOTION_DDOT":0},{"OBJECT_NAME":"ONEWEB-0169","OBJECT_ID":"2021-025AM","EPOCH":"2025-12-14T07:13:39.152640","MEAN_MOTION":13.13469282,"ECCENTRICITY":0.00018191,"INCLINATION":87.8981,"RA_OF_ASC_NODE":356.9726,"ARG_OF_PERICENTER":97.5186,"MEAN_ANOMALY":262.615,"EPHEMERIS_TYPE":0,"CLASSIFICATION_TYPE":"U","NORAD_CAT_ID":48077,"ELEMENT_SET_NO":999,"REV_AT_EPOCH":22803,"BSTAR":-0.00038566163,"MEAN_MOTION_DOT":-1.28e-6,"MEAN_MOTION_DDOT":0},{"OBJECT_NAME":"ONEWEB-0176","OBJECT_ID":"2021-031A","EPOCH":"2025-12-14T05:06:22.118400","MEAN_MOTION":13.14500211,"ECCENTRICITY":0.0001769,"INCLINATION":87.899,"RA_OF_ASC_NODE":326.5531,"ARG_OF_PERICENTER":81.7567,"MEAN_ANOMALY":278.3763,"EPHEMERIS_TYPE":0,"CLASSIFICATION_TYPE":"U","NORAD_CAT_ID":48210,"ELEMENT_SET_NO":999,"REV_AT_EPOCH":22401,"BSTAR":-0.00059819686,"MEAN_MOTION_DOT":-2.09e-6,"MEAN_MOTION_DDOT":0}]
