ONEWEB-0164             
1 48063U 21025X   25348.28929431 -.00000219  00000+0 -63366-3 0  9991
2 48063  87.8987 356.9591 0001852  90.2355 269.8986 13.13471725229317
ONEWEB-0167             
1 48064U 21025Y   25348.31725128  .00000262  00000+0  68299-3 0  9999
2 48064  87.8977 356.9810 0001655  66.5929 293.5374 13.13469196229308
ONEWEB-0166             
1 48065U 21025Z   25348.26390932  .00000196  00000+0  50051-3 0  9998
2 48065  87.8985 356.9480 0001605  95.7627 264.3686 13.13471293229375
ONEWEB-0151             
1 48066U 21025AA  25348.26560413  .00000174  00000+0  44225-3 0  9994
2 48066  87.8987 356.9740 0001749  85.8591 274.2738 13.13470897229317
ONEWEB-0170             
1 48067U 21025AB  25348.27406091  .00000006  00000+0 -18044-4 0  9993
2 48067  87.8980 356.9772 0002157  83.2447 276.8928 13.13471740229274
ONEWEB-0168             
1 48068U 21025AC  25348.25883317  .00000266  00000+0  69355-3 0  9999
2 48068  87.8988 356.9654 0001566  90.0937 270.0372 13.13470626229287
ONEWEB-0173             
1 48069U 21025AD  25348.02183533  .00000338  00000+0  89067-3 0  9990
2 48069  87.8988 357.0202 0001434  79.4817 280.6473 13.13471778229492
ONEWEB-0171             
1 48070U 21025AE  25348.28761309 -.00000284  00000+0 -81324-3 0  9993
2 48070  87.8973 356.9895 0001766  86.9132 273.2199 13.13470804229341
ONEWEB-0172             
1 48071U 21025AF  25348.26729472  .00000103  00000+0  24726-3 0  9998
2 48071  87.8989 356.9760 0001690  85.5959 274.5363 13.13470867230234
ONEWEB-0174             
1 48072U 21025AG  25348.32485142  .00000372  00000+0  98409-3 0  9996
2 48072  87.8977 356.9686 0001598  94.4538 265.6774 13.13472042229566
ONEWEB-0175             
1 48073U 21025AH  25348.05060996 -.00000179  00000+0 -52430-3 0  9994
2 48073  87.8984 356.9925 0001911  81.3322 278.8024 13.13471153229180
ONEWEB-0177             
1 48074U 21025AJ  25348.06246611 -.00000298  00000+0 -85173-3 0  9998
2 48074  87.8987 357.0099 0001530  92.3321 267.7984 13.13470963229377
ONEWEB-0178             
1 48075U 21025AK  25348.30975709  .00000104  00000+0  24978-3 0  9993
2 48075  87.8976 357.0014 0001662  81.1618 278.9699 13.13471774229451
ONEWEB-0108             
1 48076U 21025AL  25348.26900381  .00000007  00000+0 -14610-4 0  9999
2 48076  87.8984 356.9583 0001847  97.2564 262.8775 13.13470356229376
ONEWEB-0169             
1 48077U 21025AM  25348.30114760 -.00000128  00000+0 -38566-3 0  9993
2 48077  87.8981 356.9726 0001819  97.5186 262.6150 13.13469282228038
ONEWEB-0176             
1 48210U 21031A   25348.21275600 -.00000209  00000+0 -59820-3 0  9996
2 48210  87.8990 326.5531 0001769  81.7567 278.3763 13.14500211224013
